TEVEL2-1                
1 63217U 25052H   26068.64782323  .00020683  00000+0  70600-3 0  9994
2 63217  97.3991 324.7682 0004767 104.8919 255.2849 15.30341923 54855
STARLINK-34390          
1 64666U 25139C   26068.53491302  .00025068  00000+0  85699-3 0  9997
2 64666  53.1583 127.5300 0000725  82.6077 277.5007 15.30148233 40324
